[{"OBJECT_NAME":"STARLINK-30922","OBJECT_ID":"2023-180N","EPOCH":"2026-03-09T07:06:49.906080","MEAN_MOTION":15.26741506,"ECCENTRICITY":0.00015437,"INCLINATION":43.0054,"RA_OF_ASC_NODE":54.9489,"ARG_OF_PERICENTER":262.4941,"MEAN_ANOMALY":97.5735,"EPHEMERIS_TYPE":0,"CLASSIFICATION_TYPE":"U","NORAD_CAT_ID":58414,"ELEMENT_SET_NO":999,"REV_AT_EPOCH":12756,"BSTAR":3.1710047e-5,"MEAN_MOTION_DOT":5.91e-6,"MEAN_MOTION_DDOT":0},{"OBJECT_NAME":"SL-3 R\/B","OBJECT_ID":"1982-027B","EPOCH":"2026-03-09T22:44:40.208640","MEAN_MOTION":15.28335844,"ECCENTRICITY":0.00065199,"INCLINATION":81.188,"RA_OF_ASC_NODE":37.4466,"ARG_OF_PERICENTER":276.581,"MEAN_ANOMALY":83.4683,"EPHEMERIS_TYPE":0,"CLASSIFICATION_TYPE":"U","NORAD_CAT_ID":13121,"ELEMENT_SET_NO":999,"REV_AT_EPOCH":39859,"BSTAR":0.00030526741,"MEAN_MOTION_DOT":8.453e-5,"MEAN_MOTION_DDOT":0}]
